STARLINK-2497
1 28455C 21040AD  21325.14687260 -.00021184  00000-0 -14188-2 0  3255
2 28455  53.0551  27.5653 0001257  71.6624  13.9949 15.06435312    12
